0 COSMOS 2251 DEB
1 38209U 93036BSZ 13281.59383973  .00018615  00000-0  22710-2 0   317
2 38209 074.1251 010.6255 0100879 101.2606 264.7278 14.79693744217341
0 COSMOS 2251 DEB
1 38209U 93036BSZ 13291.53050770  .00018436  00000-0  22387-2 0   331
2 38209 074.1319 351.1600 0098548 079.0793 282.3061 14.80047454218813
0 COSMOS 2251 DEB
1 38209U 93036BSZ 13292.54437140  .00018460  00000-0  22393-2 0   348
2 38209 074.1319 349.1752 0098611 076.8136 284.4017 14.80084995218966
